COSMOS 2550             
1 48865U 21056A   26067.47400841 -.00000192  00000+0 -13338-7 0  9992
2 48865  67.1451  44.6088 0008369 269.6014  90.4182 15.33829151263273
STARLINK-31520          
1 59210U 24046K   26068.52933173 -.00002188  00000+0 -61778-4 0  9991
2 59210  53.1606 156.1783 0001257  93.8100 266.3045 15.30191029113021
